{
  "type": "FeatureCollection",
  "features": [
    {
      "type": "Feature",
      "properties": {
        "norad_id": 30073,
        "name": "FENGYUN 1C DEB",
        "group": "fengyun-1c-debris",
        "lat": 80.57238745483583,
        "lon": -129.4358791714474,
        "alt_km": 859.6082609373852,
        "timestamp": "2025-12-10T21:43:22.361512+00:00",
        "meta_object_name": "FENGYUN 1C DEB",
        "meta_object_id": "1999-025QA",
        "meta_epoch": "2025-12-10T10:10:07.370688",
        "meta_mean_motion": 14.18642799,
        "meta_eccentricity": 0.00537504,
        "meta_inclination": 99.4119,
        "meta_ra_of_asc_node": 317.413,
        "meta_arg_of_pericenter": 287.4133,
        "meta_mean_anomaly": 224.6446,
        "meta_ephemeris_type": 0,
        "meta_classification_type": "U",
        "meta_norad_cat_id": 30073,
        "meta_element_set_no": 999,
        "meta_rev_at_epoch": 96892,
        "meta_bstar": 0.0024269835,
        "meta_mean_motion_dot": 5.057e-05,
        "meta_mean_motion_ddot": 0,
        "tle_line1": "1 30073U 99025QA  25344.42369642  .00005057  00000+0  24270-2 0  9995",
        "tle_line2": "2 30073  99.4119 317.4130 0053750 287.4133 224.6446 14.18642799968928"
      },
      "geometry": {
        "type": "Point",
        "coordinates": [
          -129.4358791714474,
          80.57238745483583
        ]
      }
    },
    {
      "type": "Feature",
      "properties": {
        "norad_id": 30074,
        "name": "FENGYUN 1C DEB",
        "group": "fengyun-1c-debris",
        "lat": -62.44822770439739,
        "lon": -146.84482550674844,
        "alt_km": 852.2709016145309,
        "timestamp": "2025-12-10T21:43:22.361523+00:00",
        "meta_object_name": "FENGYUN 1C DEB",
        "meta_object_id": "1999-025QB",
        "meta_epoch": "2025-12-10T03:34:58.265472",
        "meta_mean_motion": 14.12831884,
        "meta_eccentricity": 0.00974209,
        "meta_inclination": 99.1292,
        "meta_ra_of_asc_node": 50.3363,
        "meta_arg_of_pericenter": 159.1026,
        "meta_mean_anomaly": 201.417,
        "meta_ephemeris_type": 0,
        "meta_classification_type": "U",
        "meta_norad_cat_id": 30074,
        "meta_element_set_no": 999,
        "meta_rev_at_epoch": 96625,
        "meta_bstar": 0.0018928547,
        "meta_mean_motion_dot": 3.636e-05,
        "meta_mean_motion_ddot": 0,
        "tle_line1": "1 30074U 99025QB  25344.14928548  .00003636  00000+0  18929-2 0  9996",
        "tle_line2": "2 30074  99.1292  50.3363 0097420 159.1026 201.4170 14.12831884966257"
      },
      "geometry": {
        "type": "Point",
        "coordinates": [
          -146.84482550674844,
          -62.44822770439739
        ]
      }
    },
    {
      "type": "Feature",
      "properties": {
        "norad_id": 30075,
        "name": "FENGYUN 1C DEB",
        "group": "fengyun-1c-debris",
        "lat": 67.71568016962686,
        "lon": -121.0617827103161,
        "alt_km": 891.7479230788722,
        "timestamp": "2025-12-10T21:43:22.361533+00:00",
        "meta_object_name": "FENGYUN 1C DEB",
        "meta_object_id": "1999-025QC",
        "meta_epoch": "2025-12-10T09:10:32.621664",
        "meta_mean_motion": 13.92532326,
        "meta_eccentricity": 0.00909779,
        "meta_inclination": 99.3622,
        "meta_ra_of_asc_node": 34.6717,
        "meta_arg_of_pericenter": 183.4022,
        "meta_mean_anomaly": 188.4236,
        "meta_ephemeris_type": 0,
        "meta_classification_type": "U",
        "meta_norad_cat_id": 30075,
        "meta_element_set_no": 999,
        "meta_rev_at_epoch": 96032,
        "meta_bstar": 0.00017591102,
        "meta_mean_motion_dot": 1.89e-06,
        "meta_mean_motion_ddot": 0,
        "tle_line1": "1 30075U 99025QC  25344.38232201  .00000189  00000+0  17591-3 0  9992",
        "tle_line2": "2 30075  99.3622  34.6717 0090977 183.4022 188.4236 13.92532326960326"
      },
      "geometry": {
        "type": "Point",
        "coordinates": [
          -121.0617827103161,
          67.71568016962686
        ]
      }
    },
    {
      "type": "Feature",
      "properties": {
        "norad_id": 30076,
        "name": "FENGYUN 1C DEB",
        "group": "fengyun-1c-debris",
        "lat": -79.7701679869187,
        "lon": 36.08139024006507,
        "alt_km": 1113.2493891595086,
        "timestamp": "2025-12-10T21:43:22.361544+00:00",
        "meta_object_name": "FENGYUN 1C DEB",
        "meta_object_id": "1999-025QD",
        "meta_epoch": "2025-12-10T10:39:43.264800",
        "meta_mean_motion": 13.76288566,
        "meta_eccentricity": 0.01756712,
        "meta_inclination": 99.238,
        "meta_ra_of_asc_node": 331.238,
        "meta_arg_of_pericenter": 99.9089,
        "meta_mean_anomaly": 52.1245,
        "meta_ephemeris_type": 0,
        "meta_classification_type": "U",
        "meta_norad_cat_id": 30076,
        "meta_element_set_no": 999,
        "meta_rev_at_epoch": 94862,
        "meta_bstar": 0.00040089378,
        "meta_mean_motion_dot": 3.96e-06,
        "meta_mean_motion_ddot": 0,
        "tle_line1": "1 30076U 99025QD  25344.44425075  .00000396  00000+0  40089-3 0  9991",
        "tle_line2": "2 30076  99.2380 331.2380 0175671  99.9089  52.1245 13.76288566948620"
      },
      "geometry": {
        "type": "Point",
        "coordinates": [
          36.08139024006507,
          -79.7701679869187
        ]
      }
    },
    {
      "type": "Feature",
      "properties": {
        "norad_id": 30077,
        "name": "FENGYUN 1C DEB",
        "group": "fengyun-1c-debris",
        "lat": -4.740378759431188,
        "lon": 1.3510364153002716,
        "alt_km": 871.722424168509,
        "timestamp": "2025-12-10T21:43:22.361554+00:00",
        "meta_object_name": "FENGYUN 1C DEB",
        "meta_object_id": "1999-025QE",
        "meta_epoch": "2025-12-10T06:40:17.154048",
        "meta_mean_motion": 14.07078567,
        "meta_eccentricity": 0.0020409,
        "meta_inclination": 98.7583,
        "meta_ra_of_asc_node": 0.0111,
        "meta_arg_of_pericenter": 271.4481,
        "meta_mean_anomaly": 148.62,
        "meta_ephemeris_type": 0,
        "meta_classification_type": "U",
        "meta_norad_cat_id": 30077,
        "meta_element_set_no": 999,
        "meta_rev_at_epoch": 97078,
        "meta_bstar": 0.00015511,
        "meta_mean_motion_dot": 2.17e-06,
        "meta_mean_motion_ddot": 0,
        "tle_line1": "1 30077U 99025QE  25344.27797632  .00000217  00000+0  15511-3 0  9998",
        "tle_line2": "2 30077  98.7583   0.0111 0020409 271.4481 148.6200 14.07078567970781"
      },
      "geometry": {
        "type": "Point",
        "coordinates": [
          1.3510364153002716,
          -4.740378759431188
        ]
      }
    },
    {
      "type": "Feature",
      "properties": {
        "norad_id": 30078,
        "name": "FENGYUN 1C DEB",
        "group": "fengyun-1c-debris",
        "lat": 40.8886241326123,
        "lon": -112.49697281144442,
        "alt_km": 843.3743197114472,
        "timestamp": "2025-12-10T21:43:22.361565+00:00",
        "meta_object_name": "FENGYUN 1C DEB",
        "meta_object_id": "1999-025QF",
        "meta_epoch": "2025-12-10T11:01:25.336128",
        "meta_mean_motion": 14.23114212,
        "meta_eccentricity": 0.00526347,
        "meta_inclination": 98.8318,
        "meta_ra_of_asc_node": 59.3191,
        "meta_arg_of_pericenter": 287.1074,
        "meta_mean_anomaly": 89.0103,
        "meta_ephemeris_type": 0,
        "meta_classification_type": "U",
        "meta_norad_cat_id": 30078,
        "meta_element_set_no": 999,
        "meta_rev_at_epoch": 97081,
        "meta_bstar": 0.0019021649,
        "meta_mean_motion_dot": 4.312e-05,
        "meta_mean_motion_ddot": 0,
        "tle_line1": "1 30078U 99025QF  25344.45932102  .00004312  00000+0  19022-2 0  9992",
        "tle_line2": "2 30078  98.8318  59.3191 0052634 287.1074  89.0103 14.23114212970811"
      },
      "geometry": {
        "type": "Point",
        "coordinates": [
          -112.49697281144442,
          40.8886241326123
        ]
      }
    },
    {
      "type": "Feature",
      "properties": {
        "norad_id": 30079,
        "name": "FENGYUN 1C DEB",
        "group": "fengyun-1c-debris",
        "lat": 22.98762371820007,
        "lon": 36.59213053706545,
        "alt_km": 878.5243955851938,
        "timestamp": "2025-12-10T21:43:22.361575+00:00",
        "meta_object_name": "FENGYUN 1C DEB",
        "meta_object_id": "1999-025QG",
        "meta_epoch": "2025-12-10T15:30:15.418656",
        "meta_mean_motion": 14.00792367,
        "meta_eccentricity": 0.00846103,
        "meta_inclination": 99.0357,
        "meta_ra_of_asc_node": 40.2065,
        "meta_arg_of_pericenter": 304.9065,
        "meta_mean_anomaly": 211.6107,
        "meta_ephemeris_type": 0,
        "meta_classification_type": "U",
        "meta_norad_cat_id": 30079,
        "meta_element_set_no": 999,
        "meta_rev_at_epoch": 96508,
        "meta_bstar": 0.00028439442,
        "meta_mean_motion_dot": 3.93e-06,
        "meta_mean_motion_ddot": 0,
        "tle_line1": "1 30079U 99025QG  25344.64601179  .00000393  00000+0  28439-3 0  9999",
        "tle_line2": "2 30079  99.0357  40.2065 0084610 304.9065 211.6107 14.00792367965082"
      },
      "geometry": {
        "type": "Point",
        "coordinates": [
          36.59213053706545,
          22.98762371820007
        ]
      }
    }
  ]
}